{"type": "Feature", "properties": {"NUTS_ID": "ES30", "LEVL_CODE": 2, "CNTR_CODE": "ES", "NAME_LATN": "Comunidad de Madrid", "NUTS_NAME": "Comunidad de Madrid", "MOUNT_TYPE": null, "URBN_TYPE": null, "COAST_TYPE": null, "NAME_ENGL": "Spain", "NAME_FREN": "Espagne", "ISO3_CODE": "ESP", "SVRG_UN": "UN Member State", "CAPT": "Madrid", "EU_STAT": "T", "EFTA_STAT": "F", "CC_STAT": "F", "NAME_GERM": "Spanien"}, "geometry": {"type": "MultiPolygon", "coordinates": [[[[-3.536555629999953, 41.16052915800003], [-3.537475598999947, 41.155285450000065], [-3.538385413999947, 41.153801163000026], [-3.540948705999938, 41.149619366000024], [-3.536531228999934, 41.14796256200003], [-3.533215703999929, 41.14671905200004], [-3.532201176999934, 41.145645854000065], [-3.526544767999951, 41.13966232700005], [-3.517289396999956, 41.13766760300007], [-3.509437609999964, 41.13597538100004], [-3.493995729999938, 41.11341848100005], [-3.49184151399993, 41.10546985800005], [-3.48919488699994, 41.095704341000044], [-3.482939447999968, 41.09353278800006], [-3.478151947999947, 41.09455126900008], [-3.475004610999974, 41.09522082500007], [-3.46801041599997, 41.09141407000004], [-3.449715740999977, 41.08145676300006], [-3.440440511999952, 41.082885549000025], [-3.432235768999931, 41.08414943400004], [-3.427964515999975, 41.082413882000026], [-3.425219493999975, 41.07417384000007], [-3.42656709299996, 41.06620168000006], [-3.434898845999953, 41.05012474500006], [-3.438785202999952, 41.042625636000025], [-3.433448619999979, 41.04193787300005], [-3.431027896999979, 41.04162589800006], [-3.429588509999974, 41.04018352000003], [-3.427806224999927, 41.03599572500008], [-3.425924615999975, 41.03157455200005], [-3.41309199799997, 41.018514665000055], [-3.40965704499996, 41.01688236700005], [-3.407398279999938, 41.01580899600003], [-3.405682301999946, 41.013333475000024], [-3.402108307999924, 41.01072331800003], [-3.400723359999972, 41.00903491400004], [-3.397338652999963, 41.006766053000035], [-3.39691662599995, 41.00460641700005], [-3.394300557999941, 41.000234539000076], [-3.410163479999937, 40.99141035300005], [-3.416917737999938, 40.98765311200003], [-3.417005262999965, 40.98264518500008], [-3.41714675399993, 40.974549453000066], [-3.421432150999976, 40.967241053000066], [-3.435465460999978, 40.94573571300003], [-3.437131842999975, 40.933642821000035], [-3.447202446999938, 40.92404467400007], [-3.451134862999936, 40.912822522000056], [-3.446107438999945, 40.91004767900006], [-3.445689449999975, 40.906920092000064], [-3.455921099999955, 40.907236211000054], [-3.458719676999976, 40.907322676000035], [-3.459442330999934, 40.89946372600008], [-3.453006880999965, 40.897105228000044], [-3.442634790999932, 40.89330400800003], [-3.440822087999948, 40.89040262200007], [-3.44378491599997, 40.886321889000044], [-3.440976746999979, 40.88043558900006], [-3.441244429999927, 40.87609091500008], [-3.448684901999968, 40.875613335000025], [-3.451345466999953, 40.87433123500006], [-3.470889221999926, 40.86491329200004], [-3.471374012999945, 40.86166237800006], [-3.469176446999938, 40.85935992900005], [-3.46673868299996, 40.856805819000044], [-3.470085124999969, 40.85202111600006], [-3.471417661999965, 40.85171275600004], [-3.474856364999937, 40.850917010000046], [-3.47273492599993, 40.84721816200005], [-3.470592451999948, 40.84348263700008], [-3.474786055999971, 40.840219570000045], [-3.478307511999958, 40.83747950500003], [-3.477255103999937, 40.83179501300003], [-3.47656281299993, 40.828055660000075], [-3.483311941999943, 40.81453647100005], [-3.490564586999938, 40.80795700700003], [-3.492435898999929, 40.79863619300005], [-3.497835451999947, 40.79805042300006], [-3.50205030099994, 40.79759317500003], [-3.50319951299997, 40.79545845900003], [-3.502195137999934, 40.79347189300006], [-3.502435868999953, 40.79132154100006], [-3.504098005999936, 40.789191161000076], [-3.509118878999971, 40.790491555000074], [-3.511418301999925, 40.78845454900005], [-3.502394414999969, 40.788057123000044], [-3.497990849999951, 40.788772563000066], [-3.468553422999946, 40.78325110500003], [-3.46061574099997, 40.78176226700003], [-3.44945656699997, 40.77074543200007], [-3.446803216999967, 40.76337538000007], [-3.444037084999934, 40.75904272200006], [-3.444388117999949, 40.749564544000066], [-3.448185691999925, 40.74308548700003], [-3.451116382999942, 40.73808542300003], [-3.450261840999929, 40.734846394000044], [-3.448584220999976, 40.73292008200008], [-3.446072535999974, 40.734206062000055], [-3.444275216999927, 40.735968642000046], [-3.44425956799995, 40.73598398900003], [-3.441728903999945, 40.73768731700005], [-3.439825037999981, 40.73645438600005], [-3.438425106999944, 40.73498641800006], [-3.434882570999946, 40.73105648200004], [-3.43722850599994, 40.72343565800003], [-3.444403239999929, 40.71678156000007], [-3.459255974999962, 40.70300661700003], [-3.463066267999977, 40.69373899200008], [-3.468398015999981, 40.68989659300007], [-3.456173948999947, 40.68732651700003], [-3.455491327999937, 40.687182998000026], [-3.452642265999941, 40.684811367000066], [-3.440677154999946, 40.67485130800003], [-3.427612291999935, 40.67309887500005], [-3.427086409999959, 40.67419465800003], [-3.423535256999969, 40.68159421200005], [-3.415395081999975, 40.672937674000025], [-3.414861837999979, 40.67237060400004], [-3.405739260999951, 40.670481325000026], [-3.401861054999927, 40.684073855000065], [-3.399761837999961, 40.69143129500003], [-3.396893152999951, 40.69151135100003], [-3.393201789999978, 40.69241868900008], [-3.389699613999937, 40.688038419000065], [-3.389284679999946, 40.687519449000035], [-3.386752017999925, 40.68592693900007], [-3.385555358999966, 40.68404011500007], [-3.383888321999962, 40.68355468400006], [-3.383064650999927, 40.68331483600008], [-3.373988317999931, 40.678467788000034], [-3.363267962999942, 40.65462060600004], [-3.364216217999967, 40.65271834500004], [-3.365189183999973, 40.650766513000065], [-3.363907218999941, 40.64691703600005], [-3.347135442999956, 40.642143033000025], [-3.345176222999953, 40.63801832400003], [-3.339921985999979, 40.63683714300004], [-3.332601066999928, 40.63949770200003], [-3.324224278999964, 40.64254198300006], [-3.31634642299997, 40.65513799900003], [-3.314631264999946, 40.64970908500004], [-3.32235632499993, 40.64057385000007], [-3.324314919999949, 40.630041568000024], [-3.326939408999976, 40.62865444500005], [-3.334947593999971, 40.62442187500005], [-3.32688180699995, 40.61674816200008], [-3.321601533999967, 40.61172456200006], [-3.326838330999976, 40.60776188400007], [-3.329569889999959, 40.60569491600006], [-3.330716317999929, 40.60092111400007], [-3.328208121999978, 40.595064930000035], [-3.313327860999948, 40.58231991900004], [-3.301573280999946, 40.57781573300008], [-3.287026781999941, 40.572241725000026], [-3.284303129999955, 40.56323369000006], [-3.287272732999952, 40.55850013400004], [-3.28412048499996, 40.54970987000007], [-3.290651725999965, 40.543166291000034], [-3.296039795999945, 40.53776804300003], [-3.289849618999938, 40.53175014800007], [-3.262715901999968, 40.53956548700006], [-3.249661758999935, 40.54332547800004], [-3.233350951999967, 40.53321626800005], [-3.232224699999961, 40.539696552000066], [-3.222573125999929, 40.526272203000076], [-3.199954865999928, 40.51444851600007], [-3.198960195999973, 40.50478365300006], [-3.201267893999955, 40.498786144000064], [-3.195328050999933, 40.47859415700003], [-3.19888556099994, 40.46738204300004], [-3.199639281999964, 40.46500656100005], [-3.198445556999957, 40.44221966300006], [-3.172991430999957, 40.437044823000065], [-3.164072811999972, 40.43823253200003], [-3.155363339999951, 40.439392388000044], [-3.148997979999933, 40.426793184000076], [-3.142106989999945, 40.41315358300005], [-3.138159041999927, 40.41045426200003], [-3.130406809999954, 40.405153846000076], [-3.135520224999937, 40.39101305500003], [-3.139674968999941, 40.38840398800005], [-3.142490774999942, 40.38663573900004], [-3.141826586999969, 40.38426390600006], [-3.139431133999949, 40.37570967200003], [-3.14729985699995, 40.37373239500005], [-3.149901960999955, 40.37307853000004], [-3.152114127999937, 40.366850140000054], [-3.148434597999938, 40.36054584900006], [-3.148027182999954, 40.360353952000025], [-3.143247917999929, 40.35810286800006], [-3.142300836999937, 40.350760570000034], [-3.148746857999924, 40.34635172700007], [-3.154195944999969, 40.34262475000003], [-3.153781741999978, 40.34042819000007], [-3.152536816999941, 40.33382623500006], [-3.171430380999936, 40.31966457900006], [-3.179850904999967, 40.313352982000026], [-3.181536007999966, 40.30424650500004], [-3.18095580499994, 40.30337743700005], [-3.180079040999942, 40.30206416100003], [-3.180984880999972, 40.289813362000075], [-3.186377825999955, 40.27824973100007], [-3.184737667999968, 40.26933555200003], [-3.192065690999925, 40.26012529900004], [-3.192441487999929, 40.259928624000054], [-3.197051119999969, 40.257516156000065], [-3.194669288999933, 40.25505047300004], [-3.194512165999924, 40.25209552300004], [-3.194496456999957, 40.25180007900008], [-3.194294708999962, 40.24800587800007], [-3.182459681999944, 40.24245346300006], [-3.173241803999929, 40.234139061000064], [-3.170393399999966, 40.24183532400008], [-3.169285991999971, 40.24482749100008], [-3.152701062999938, 40.26381954500005], [-3.143313956999975, 40.26683181400006], [-3.126749363999977, 40.27920389700006], [-3.112520854999957, 40.28544806000008], [-3.109358898999972, 40.28516902300004], [-3.097083270999974, 40.270872637000025], [-3.098189591999926, 40.26240458700005], [-3.098463233999951, 40.26031006900007], [-3.095661521999943, 40.25693034900007], [-3.087410983999973, 40.24697768100003], [-3.088203977999967, 40.240781914000024], [-3.088637837999954, 40.23739210400004], [-3.083675864999975, 40.23097682100007], [-3.079904005999936, 40.22610022300006], [-3.080195405999973, 40.20678806800004], [-3.084507592999955, 40.20323133200003], [-3.088074751999955, 40.200289102000056], [-3.085283441999934, 40.19779928000003], [-3.085281621999968, 40.197757299000045], [-3.085071092999954, 40.19290030900004], [-3.084787801999937, 40.18636470100006], [-3.076964690999944, 40.16660434700003], [-3.067810462999944, 40.15802383600004], [-3.076101871999981, 40.156808633000026], [-3.079526587999965, 40.15926305700003], [-3.084452437999971, 40.162793313000066], [-3.088643849999926, 40.162728912000034], [-3.096603490999939, 40.15461695600004], [-3.094803224999964, 40.15098202900003], [-3.094612238999957, 40.15059640700008], [-3.095104791999972, 40.14889372500005], [-3.096463590999974, 40.144196564000026], [-3.083693869999934, 40.13772891700006], [-3.077804129999947, 40.134745864000024], [-3.066495414999963, 40.12090140400005], [-3.061942555999963, 40.11532766100004], [-3.05956039299997, 40.11411596000005], [-3.057143019999955, 40.112886348000075], [-3.052983579999932, 40.09938811100005], [-3.062314226999945, 40.089338732000044], [-3.095196769999973, 40.06851986400005], [-3.118030679999947, 40.06139855200007], [-3.14075371399997, 40.063175605000026], [-3.144636596999931, 40.06443291200003], [-3.149453463999976, 40.065992650000055], [-3.156279533999964, 40.06475499800007], [-3.157963925999979, 40.06444959600003], [-3.161419552999973, 40.06489718900008], [-3.162537115999953, 40.08073955100008], [-3.164458466999974, 40.08289473200006], [-3.166327099999933, 40.084990780000055], [-3.167051257999958, 40.085803068000075], [-3.167031708999957, 40.090189130000056], [-3.177855253999951, 40.09140783500004], [-3.179839154999968, 40.088994556000046], [-3.178614157999959, 40.087077340000064], [-3.177957841999955, 40.08605015300003], [-3.181764311999927, 40.08475175700005], [-3.188459748999946, 40.08246792700004], [-3.189984028999959, 40.078683597000065], [-3.191330016999927, 40.075341912000056], [-3.21128921299993, 40.061488206000035], [-3.24074780199993, 40.053926122000064], [-3.246267382999974, 40.05530133100007], [-3.253815796999959, 40.05718202500003], [-3.256866912999953, 40.05332842300004], [-3.258229090999976, 40.051607972000056], [-3.259850038999957, 40.052773168000044], [-3.264632027999937, 40.05621063700005], [-3.273013677999927, 40.05032299800007], [-3.276546034999967, 40.04784171500006], [-3.286271128999942, 40.05230194300003], [-3.291505762999975, 40.05214443500006], [-3.302296869999964, 40.053803095000035], [-3.309050432999925, 40.06367843800007], [-3.311929307999947, 40.06788804900003], [-3.326208851999979, 40.07826226800006], [-3.34486895699996, 40.080073070000026], [-3.376962824999964, 40.074146288000065], [-3.378625075999935, 40.06649382300003], [-3.376676714999974, 40.059202355000025], [-3.37510617099997, 40.053324814000064], [-3.381508135999979, 40.05107548400008], [-3.391958385999942, 40.04740379000003], [-3.393078573999958, 40.04142151700006], [-3.394195175999926, 40.03545839000003], [-3.404101609999941, 40.035199152000075], [-3.408206155999949, 40.038997867000035], [-3.410810218999927, 40.041407899000035], [-3.423718208999958, 40.04592427000006], [-3.42729759499997, 40.042125578000025], [-3.430001390999962, 40.03925612300003], [-3.445537412999954, 40.03782715700004], [-3.446615816999952, 40.042642527000055], [-3.447714046999977, 40.04754642300003], [-3.454326429999981, 40.04932439400005], [-3.457970768999928, 40.04727105300003], [-3.467675990999965, 40.041802811000025], [-3.473046505999946, 40.042091698000036], [-3.474440161999951, 40.045444745000054], [-3.487542484999949, 40.04199440900004], [-3.490727643999946, 40.04527351000007], [-3.492831257999967, 40.04743916700005], [-3.505746833999979, 40.046508447000065], [-3.511356370999977, 40.04308062000007], [-3.515038244999971, 40.04324809000008], [-3.517060977999961, 40.03644152000004], [-3.521884571999976, 40.02606842400007], [-3.52150272199998, 40.025252299000044], [-3.51953070999997, 40.02103752700003], [-3.55041068099996, 40.017573180000056], [-3.550487515999976, 40.01756456000004], [-3.58919951699994, 40.01266422300006], [-3.591030294999939, 40.009359019000044], [-3.595083594999949, 40.00204137000003], [-3.615597545999947, 39.99392648400004], [-3.630600343999959, 39.98997330700007], [-3.636670684999956, 39.988373796000076], [-3.633358815999941, 39.97800846600006], [-3.630353008999975, 39.96860103500006], [-3.640382216999967, 39.96714768000004], [-3.665957605999949, 39.96344149300006], [-3.67698874499996, 39.96057598900006], [-3.68348224999994, 39.956260945000054], [-3.696668859999932, 39.94749821900007], [-3.704681665999942, 39.95090613600007], [-3.711517872999934, 39.95381363600006], [-3.742502545999969, 39.940824048000025], [-3.744019415999958, 39.93792681600007], [-3.748345197999924, 39.92966454400005], [-3.757293616999959, 39.920880616000034], [-3.778189706999967, 39.91091645500006], [-3.80464713799995, 39.88808761400003], [-3.804290572999946, 39.88476302400005], [-3.811881065999955, 39.88577246600005], [-3.814893689999963, 39.88574257400006], [-3.821113652999941, 39.890200477000064], [-3.834450458999925, 39.89975908500003], [-3.854011560999936, 39.90223582500005], [-3.862041873999942, 39.90325258800004], [-3.875427348999949, 39.91068534500005], [-3.870278636999956, 39.91581840400005], [-3.86831224499997, 39.917778817000055], [-3.870672381999952, 39.92158322800003], [-3.874499302999936, 39.92775201400008], [-3.867388357999971, 39.93195560200007], [-3.840955548999943, 39.941313696000066], [-3.838478511999938, 39.93711340900006], [-3.836034352999945, 39.93296887200006], [-3.832846660999962, 39.932365900000036], [-3.829886176999935, 39.93781619500004], [-3.826360425999951, 39.944307157000026], [-3.821935020999945, 39.94670335600006], [-3.806444424999938, 39.95328120500005], [-3.801319857999943, 39.94916670200007], [-3.798084790999951, 39.94656927400007], [-3.785285510999927, 39.945696489000056], [-3.784484007999936, 39.95013989200004], [-3.783543909999935, 39.95535163900007], [-3.764439737999965, 39.96540365800007], [-3.760151141999927, 39.958392426000046], [-3.764796070999978, 39.95506362000003], [-3.768971958999941, 39.95207095500007], [-3.763080702999957, 39.94863071000003], [-3.752857240999958, 39.95437784200004], [-3.754432377999933, 39.96141155200007], [-3.755540052999947, 39.96635782800007], [-3.749050131999979, 39.96421845900005], [-3.74274369099993, 39.96213957400005], [-3.730033931999969, 39.96436653600006], [-3.726479082999958, 39.97024318600006], [-3.734931336999978, 39.970073392000074], [-3.738125112999967, 39.97000923300004], [-3.74457902599994, 39.97938723000004], [-3.740728842999943, 39.98103876300007], [-3.73871780199994, 39.98016993900006], [-3.734992849999969, 39.97856065900004], [-3.732397564999928, 39.98538556700004], [-3.721756837999976, 39.98737939100005], [-3.722637266999925, 39.99633865100003], [-3.722738709999931, 39.99737093500005], [-3.715764286999956, 40.003468164000026], [-3.709626619999938, 40.012195708000036], [-3.70000541099995, 40.01920859400008], [-3.688610706999953, 40.02151864800004], [-3.684331165999936, 40.018521520000036], [-3.680954329999963, 40.01615659200007], [-3.673046869999951, 40.023137734000045], [-3.667738110999949, 40.02782460000003], [-3.664473631999954, 40.03552865000006], [-3.659026104999953, 40.03642450700005], [-3.655956253999932, 40.03497257300006], [-3.651018361999945, 40.03263712100005], [-3.647024377999969, 40.040498452000065], [-3.63670104199997, 40.042980853000074], [-3.638733617999947, 40.04689883300006], [-3.639134916999978, 40.04767237500005], [-3.637719347999962, 40.050819759000035], [-3.627938134999965, 40.054374444000075], [-3.620936251999979, 40.056919066000034], [-3.622897732999945, 40.06138604500006], [-3.62319163899997, 40.06205537100004], [-3.622985959999937, 40.062316794000026], [-3.617777085999933, 40.068937412000025], [-3.624121374999959, 40.07429483400006], [-3.628190211999936, 40.07773075500006], [-3.620333699999946, 40.08015588000006], [-3.609834186999933, 40.083396839000045], [-3.604819840999937, 40.093179915000064], [-3.608707315999936, 40.09316503500003], [-3.613386759999969, 40.09314712400004], [-3.615607273999956, 40.09590706300003], [-3.610814569999945, 40.10375140800005], [-3.607627976999936, 40.108966989000066], [-3.616575829999931, 40.112157394000064], [-3.625467202999971, 40.11532766100004], [-3.660756877999972, 40.129161099000044], [-3.664986609999971, 40.13827736400003], [-3.667312587999959, 40.14329050200007], [-3.676003160999926, 40.13816922400008], [-3.685621662999949, 40.13250112600008], [-3.712913481999976, 40.141696513000056], [-3.713530010999932, 40.14224919000003], [-3.718110656999954, 40.14635543800006], [-3.720072457999947, 40.14720067600007], [-3.722216055999979, 40.14771300600006], [-3.729886459999932, 40.14386738300004], [-3.735668978999968, 40.13915254300008], [-3.736357061999968, 40.13849208000005], [-3.739775376999944, 40.13521097700004], [-3.742134232999945, 40.13409410100007], [-3.748849539999981, 40.13280890800007], [-3.771432897999944, 40.13977833100006], [-3.777466303999972, 40.147129405000044], [-3.77922670099997, 40.15283819800004], [-3.781177514999968, 40.15916449500003], [-3.799875021999981, 40.17536354300006], [-3.806011643999966, 40.177131133000046], [-3.806587997999941, 40.177186465000034], [-3.810062177999953, 40.17105457000008], [-3.810804347999976, 40.16974464600003], [-3.813971761999937, 40.17003244800003], [-3.818410570999959, 40.170435773000065], [-3.823592037999958, 40.16751732300003], [-3.83335333499997, 40.16201929300007], [-3.840838113999951, 40.162663931000054], [-3.851706996999951, 40.16934889600003], [-3.852623233999964, 40.174872949000076], [-3.853365573999952, 40.17934856900007], [-3.876322844999947, 40.19122212600007], [-3.881553632999953, 40.18935400600003], [-3.883187651999947, 40.18877043400005], [-3.911930654999935, 40.19038952600005], [-3.918245318999936, 40.195097933000056], [-3.925989681999965, 40.200872366000056], [-3.938628017999974, 40.20322787500004], [-3.944217486999946, 40.19644152800004], [-3.949348540999949, 40.19021175700004], [-3.950632605999942, 40.19531213100004], [-3.95093013099995, 40.196493915000076], [-3.951118504999954, 40.19657229100005], [-3.956184406999967, 40.198680040000056], [-3.954573675999939, 40.20553313600004], [-3.952866560999951, 40.21279631200008], [-3.966788561999977, 40.211978628000054], [-3.991920044999972, 40.21050257400003], [-4.008962828999927, 40.22050791700008], [-4.025259239999968, 40.23578542000007], [-4.026236298999947, 40.24363858500004], [-4.025768156999959, 40.24468232000004], [-4.023862493999957, 40.24893104500006], [-4.025796326999966, 40.249544385000036], [-4.031969935999939, 40.24959364600005], [-4.041704497999945, 40.24967132200004], [-4.051920548999931, 40.251491102000045], [-4.056860012999948, 40.25391117500004], [-4.062372334999964, 40.25769643800004], [-4.066054208999958, 40.261483396000074], [-4.067964969999935, 40.262608476000025], [-4.072728728999948, 40.265413436000074], [-4.075209447999953, 40.265169911000044], [-4.080290253999976, 40.26690162400007], [-4.085392208999963, 40.25633798000007], [-4.085580325999956, 40.255948482000065], [-4.086974262999945, 40.254218395000066], [-4.095032731999936, 40.24772340800007], [-4.099997168999948, 40.246225037000045], [-4.100434677999942, 40.24609298800004], [-4.100633921999929, 40.24578412900007], [-4.102165237999941, 40.24341035300006], [-4.104105563999951, 40.241795841000055], [-4.111049780999963, 40.244250951000026], [-4.113660854999978, 40.24374850000004], [-4.120579600999974, 40.24364556900008], [-4.123361685999953, 40.24541057400006], [-4.124336390999929, 40.246028945000035], [-4.127309426999943, 40.24600196500006], [-4.132262968999953, 40.24832367700003], [-4.138000810999927, 40.246530077000045], [-4.143561344999966, 40.24479190200003], [-4.149699402999943, 40.24909679700005], [-4.146842756999945, 40.25824104900005], [-4.144828662999942, 40.264688256000056], [-4.151679963999925, 40.267098314000066], [-4.165377251999928, 40.27191656100007], [-4.168772169999954, 40.279812857000024], [-4.172318615999927, 40.288061596000034], [-4.19214988899995, 40.29641098500008], [-4.203577335999967, 40.286289569000076], [-4.204185334999977, 40.27996035800004], [-4.205188378999935, 40.26951876700008], [-4.210539080999979, 40.26872316300006], [-4.215113319999944, 40.27078934000008], [-4.21817843499997, 40.27217384800008], [-4.222130580999931, 40.27100646500003], [-4.226027422999948, 40.26985541700003], [-4.227044034999949, 40.271158494000076], [-4.231312000999935, 40.27662910600003], [-4.249008620999973, 40.27223822600007], [-4.261905690999924, 40.25006063400008], [-4.270287603999975, 40.235647234000055], [-4.285963350999964, 40.22771204500003], [-4.294221470999958, 40.21965800700008], [-4.30629870599995, 40.22264474600007], [-4.306697055999962, 40.22427378700007], [-4.308945827999935, 40.23347006900008], [-4.31894310399997, 40.22896927100004], [-4.321834316999968, 40.22766764000005], [-4.327247200999977, 40.23215329900006], [-4.335133629999973, 40.23868878500008], [-4.341423126999928, 40.23990200600008], [-4.344155656999931, 40.23863648300005], [-4.34831786999996, 40.236708828000076], [-4.347054392999951, 40.24510284100006], [-4.345866628999943, 40.25299385200003], [-4.349633912999934, 40.260096764000025], [-4.357877018999943, 40.275638481000044], [-4.356615026999975, 40.30067574900005], [-4.35621651799994, 40.30858196100007], [-4.379939929999978, 40.31830116100008], [-4.379069681999965, 40.31494583800003], [-4.385858574999929, 40.301824311000075], [-4.383584913999925, 40.298515132000034], [-4.383687876999943, 40.297525052000026], [-4.38458387299994, 40.28890923000006], [-4.39248947699997, 40.28551562000007], [-4.398958179999966, 40.282738823000045], [-4.411027894999961, 40.27251187600007], [-4.42779911599996, 40.25830123600008], [-4.430730425999968, 40.258691568000074], [-4.434840900999973, 40.25923891700006], [-4.43481954899994, 40.25314971700004], [-4.43478599599996, 40.24358084900007], [-4.437711683999964, 40.237895311000045], [-4.44961769799994, 40.23326376500006], [-4.45610942299993, 40.23261023100008], [-4.473977022999975, 40.23081146700008], [-4.49714561299993, 40.22165011800007], [-4.49733036799995, 40.22157706200005], [-4.506612369999971, 40.21870726800006], [-4.514732035999941, 40.216196843000034], [-4.515773938999928, 40.211808946000076], [-4.517143291999957, 40.20604201400005], [-4.521209106999947, 40.20211402500007], [-4.536567527999978, 40.19969419500006], [-4.550713539999947, 40.201672676000044], [-4.573436724999965, 40.20666974200003], [-4.57360086999995, 40.211930849000055], [-4.573640155999954, 40.213190033000046], [-4.579075753999973, 40.21719598300007], [-4.565991420999978, 40.21864185700008], [-4.560835943999962, 40.22445942500008], [-4.560028853999938, 40.23382420100006], [-4.564037239999948, 40.237950940000076], [-4.566906536999966, 40.240904956000065], [-4.569479009999952, 40.25729852100005], [-4.562969516999942, 40.26159764300007], [-4.556092012999954, 40.26613981300005], [-4.555895956999962, 40.26923602100004], [-4.555413772999941, 40.27685087000003], [-4.538868751999928, 40.28762283400005], [-4.530187788999967, 40.293274747000055], [-4.536332520999963, 40.31341586700006], [-4.540505209999935, 40.32709304900004], [-4.54440161399998, 40.33014960200006], [-4.546225070999981, 40.34182504100005], [-4.541792090999934, 40.34099469600005], [-4.538882299999955, 40.34044966100004], [-4.534958696999979, 40.34154715000005], [-4.533493336999925, 40.342239308000046], [-4.529571234999935, 40.34409190100007], [-4.52661504799994, 40.34483303900004], [-4.526258063999933, 40.34012199400007], [-4.526111819999926, 40.33819204500003], [-4.505418334999945, 40.31615925600005], [-4.498545365999973, 40.31605179300004], [-4.49197858399998, 40.31897501800006], [-4.48792169799998, 40.32078095500003], [-4.472302916999979, 40.32022533700007], [-4.471800199999961, 40.32021452400005], [-4.456000058999962, 40.319874671000036], [-4.45364232999998, 40.333053422000035], [-4.457497409999974, 40.337039556000036], [-4.46077883199996, 40.34043253100003], [-4.45246825199996, 40.34459063600008], [-4.439803943999948, 40.350927080000076], [-4.440920270999925, 40.36568534100007], [-4.44246194699997, 40.386066861000074], [-4.421466390999967, 40.40624191500007], [-4.400822208999955, 40.41088996800005], [-4.371858882999959, 40.40768927000005], [-4.367187704999935, 40.40717306400006], [-4.364460239999971, 40.40826798000006], [-4.356741504999945, 40.41136659600005], [-4.343090189999941, 40.40993951200005], [-4.331517541999972, 40.408729728000026], [-4.320921073999955, 40.41026811100005], [-4.325507090999963, 40.41462727600003], [-4.323835307999957, 40.41826084400003], [-4.324831605999975, 40.42286493600005], [-4.332127463999939, 40.42399067900004], [-4.332946037999932, 40.42411698400008], [-4.338868978999926, 40.42859628800005], [-4.33899132199997, 40.43185190000003], [-4.339122721999956, 40.43828364800004], [-4.329058242999963, 40.447996928000066], [-4.326852033999955, 40.448999048000076], [-4.320229642999948, 40.45200711700005], [-4.322274400999959, 40.455405453000026], [-4.325074418999975, 40.460059010000066], [-4.319725251999955, 40.45917135000008], [-4.318380909999973, 40.46165963400006], [-4.316741901999933, 40.46469332500004], [-4.319107518999942, 40.47002934300008], [-4.324013073999936, 40.48109458400006], [-4.323016446999929, 40.50249667600008], [-4.326600252999981, 40.50880384100003], [-4.323020493999934, 40.51510236200005], [-4.321867512999972, 40.51713101100006], [-4.320666502999927, 40.53043824900004], [-4.324553603999959, 40.53276204800005], [-4.327016848999961, 40.53423463200005], [-4.323894740999947, 40.54771184300006], [-4.309543352999981, 40.557230032000064], [-4.299198899999965, 40.560731651000026], [-4.289095740999926, 40.56415159100004], [-4.278978481999957, 40.60212229200005], [-4.28250436299993, 40.60421417300006], [-4.289497815999937, 40.60836333900005], [-4.290543618999948, 40.62777938800008], [-4.282233547999965, 40.63076687100005], [-4.272181246999935, 40.628835981000066], [-4.266409632999967, 40.61507375300005], [-4.26274747399998, 40.60634145200004], [-4.244451367999943, 40.602466744000026], [-4.214116567999952, 40.60557548600008], [-4.161019278999959, 40.62342165200005], [-4.167338186999928, 40.627624936000075], [-4.171672188999935, 40.63050787700007], [-4.168814875999942, 40.64324964100007], [-4.167779202999952, 40.64786807100006], [-4.170619132999946, 40.66234030900006], [-4.173032964999948, 40.67464115800004], [-4.17051263999997, 40.681175143000075], [-4.160293592999949, 40.689853421000066], [-4.145705043999953, 40.69529784100007], [-4.139486480999949, 40.70984232300003], [-4.137024237999981, 40.71560121600004], [-4.127309426999943, 40.72408645500008], [-4.125530052999977, 40.72445008500006], [-4.123648308999975, 40.731088886000066], [-4.112127699999974, 40.74232972500005], [-4.10195631199997, 40.745896670000036], [-4.096829717999981, 40.74769448500007], [-4.096404384999971, 40.75251552900005], [-4.095281772999954, 40.765240068000026], [-4.081614653999964, 40.77623649000003], [-4.076511283999935, 40.78814932200004], [-4.069930863999957, 40.793870421000065], [-4.059430132999978, 40.792259658000035], [-4.053347948999942, 40.79059100300003], [-4.046799287999931, 40.79013346700003], [-4.045336926999937, 40.78887012300004], [-4.043257314999948, 40.78563261000005], [-4.04204361799998, 40.78374314100006], [-4.039392588999931, 40.78411903700004], [-4.036142730999927, 40.78348334000003], [-4.032238606999954, 40.78156146300006], [-4.021157525999968, 40.78114697800004], [-4.015010414999949, 40.78295049900004], [-4.014192664999939, 40.783367171000066], [-4.012354890999973, 40.784303581000074], [-4.007492839999941, 40.787863136000055], [-4.00269471699994, 40.78860467000004], [-3.991507107999951, 40.78589175900004], [-3.989590902999964, 40.785427094000056], [-3.984068092999962, 40.78590281400005], [-3.979516692999937, 40.78451043600006], [-3.977959937999969, 40.78737381700006], [-3.978691431999948, 40.793711735000045], [-3.979300055999943, 40.79898505700004], [-3.973261927999943, 40.80622551100004], [-3.964862773999926, 40.81629712400007], [-3.963424008999937, 40.828055660000075], [-3.96351324099993, 40.82869402500006], [-3.96478992599998, 40.83782746500003], [-3.949960228999942, 40.85993064400003], [-3.946923817999959, 40.86445631500004], [-3.94238368699996, 40.88687136300007], [-3.948043269999971, 40.891360605000045], [-3.95114956499998, 40.89382455100008], [-3.946383039999944, 40.90093520200003], [-3.94480060099994, 40.90329586800004], [-3.936974375999966, 40.91678869200007], [-3.937365114999977, 40.921736457000065], [-3.937791455999957, 40.92713502300006], [-3.933232120999946, 40.92706110900008], [-3.929644585999938, 40.92700295000003], [-3.927208316999952, 40.92760104700005], [-3.921598103999941, 40.929905836000046], [-3.919817099999932, 40.93783388000003], [-3.908695159999979, 40.95108532100005], [-3.90416913699994, 40.956477935000066], [-3.902909680999926, 40.95674990100008], [-3.902223317999926, 40.95689811400007], [-3.898485006999977, 40.95878812900003], [-3.896073586999933, 40.96344314100003], [-3.895018891999939, 40.96547912700004], [-3.890160336999941, 40.968803818000026], [-3.886791112999958, 40.97111018700008], [-3.883378437999966, 40.971190886000045], [-3.880630516999929, 40.97277203500005], [-3.880106104999925, 40.974422152000045], [-3.871188915999937, 40.972386536000045], [-3.869055063999951, 40.97189942000006], [-3.865968661999943, 40.97396783200003], [-3.859040749999963, 40.97861070500005], [-3.844351675999974, 40.982301869000025], [-3.839120538999964, 40.98386993300005], [-3.835016137999958, 40.984147423000024], [-3.829093775999979, 40.98665495500006], [-3.825608746999933, 40.98619347500005], [-3.820264118999944, 40.985485750000066], [-3.792483349999941, 40.99474990600004], [-3.78052471999996, 41.001579082000035], [-3.771081291999963, 41.01228015400005], [-3.769858161999935, 41.01365794700007], [-3.767141206999952, 41.01593109300006], [-3.766767625999933, 41.01889488200004], [-3.765762751999944, 41.02078349800007], [-3.758894449999957, 41.02702549500003], [-3.755389377999961, 41.02788567300007], [-3.753097945999968, 41.031615618000046], [-3.748098048999964, 41.03662735200004], [-3.73972258699996, 41.04932155900008], [-3.739975335999929, 41.051191232000065], [-3.740300288999947, 41.053595021000035], [-3.730413368999962, 41.06137903700005], [-3.72546940999996, 41.06245605000004], [-3.721268617999954, 41.06498658500004], [-3.71593659399997, 41.07150565300003], [-3.706040683999959, 41.07681441500006], [-3.700888457999952, 41.08004652500006], [-3.69528523799994, 41.082653934000064], [-3.687448520999965, 41.084890064000035], [-3.683923970999956, 41.08495406000003], [-3.682034254999962, 41.08463377600003], [-3.679384058999972, 41.08418460000007], [-3.675911450999934, 41.08664992800004], [-3.651721951999946, 41.10757169100003], [-3.647677124999973, 41.11563965600004], [-3.644867242999965, 41.121244355000044], [-3.640329488999953, 41.12310268300007], [-3.634168232999968, 41.12562587800005], [-3.633565337999926, 41.129973061000044], [-3.632892883999943, 41.13482180400007], [-3.621942882999974, 41.141778041000066], [-3.619849280999972, 41.143108049000034], [-3.617341396999961, 41.14545612500007], [-3.613550339999961, 41.14900560800004], [-3.600580916999945, 41.15442793500006], [-3.592307895999966, 41.15481230000006], [-3.583646210999973, 41.160707064000064], [-3.569616609999969, 41.159732536000035], [-3.554481628999952, 41.16492738900007], [-3.539573247999954, 41.164993407000054], [-3.536555629999953, 41.16052915800003]], [[-3.381983361999971, 40.63043156900005], [-3.371578023999973, 40.625729437000075], [-3.366007423999974, 40.63082878700004], [-3.363932956999975, 40.63272776300005], [-3.363988018999976, 40.63333067600007], [-3.364328150999938, 40.63705506200006], [-3.36440117099994, 40.63785461200007], [-3.367523372999926, 40.63799728600003], [-3.373020124999925, 40.63824846800003], [-3.373839802999953, 40.635179710000045], [-3.380104967999955, 40.632814917000076], [-3.381983361999971, 40.63043156900005]]], [[[-3.200973017999956, 40.060092928000074], [-3.204814001999978, 40.05825668400007], [-3.208293682999965, 40.06144757100003], [-3.203168094999967, 40.06346371200004], [-3.200973017999956, 40.060092928000074]]], [[[-4.254658461999952, 40.661932782000065], [-4.256563982999978, 40.65206442300007], [-4.28693124199998, 40.65269493100004], [-4.319343841999967, 40.64759940300007], [-4.323202447999961, 40.65737101700006], [-4.314561433999927, 40.66723058600007], [-4.288211714999932, 40.680591427000024], [-4.274096251999936, 40.67707234200003], [-4.254658461999952, 40.661932782000065]]]]}}